#dP2023  3 17  0  0  0.00000000      96 __u+U ITR00 FIT  IAC
## 2253 432000.00000000   900.00000000 60020 0.0000000000000
+  119   C06C07C08C09C10C11C12C13C14C16C19C20C21C22C23C24C25
+        C26C27C28C29C30C32C33C34C35C36C37C38C39C40C41C42C43
+        C44C45C46E01E02E03E04E05E07E08E09E10E11E12E13E14E15
+        E18E19E21E24E25E26E27E31E33E34E36G01G02G03G04G05G06
+        G07G08G09G10G11G12G13G14G15G16G17G18G19G20G21G22G23
+        G24G25G26G27G28G29G30G31G32J02J03J04R01R02R03R04R05
+        R07R08R09R11R12R13R14R15R16R17R18R19R20R21R22R24R25
++        10  9  9  9  8  7  6  8  7  9  6  7  7  5  7  6  7
++         6  7  6  9  8  7  6  6  6  7  7  7  6  9  7  6  7
++         7  7  7  7  7  6  6  7  6  6  7  8  6  6  6  6  6
++         5  5  6  6  7  6  6  6  6  6  6  7  6  6  6  6 11
++         6  5  5  6  7  6  5  5  5  6  6  6  6  6  6  7  6
++         6  5  6  6  7  6  6  7  6  7  8  8  6  6  7  7  7
++         6  5  8  7  6  6  6  8  7  6  7  7  7  7  6  6  7
%c M  cc GPS ccc cccc cccc cccc cccc ccccc ccccc ccccc ccccc
%c cc cc ccc ccc cccc cccc cccc cccc ccccc ccccc ccccc ccccc
%f  0.0000000  0.000000000  0.00000000000  0.000000000000000
%f  0.0000000  0.000000000  0.00000000000  0.000000000000000
%i    0    0    0    0      0      0      0      0         0
%i    0    0    0    0      0      0      0      0         0
/* INFORMATION & ANALYSIS CENTER (IAC)      ULTRA-RAPID DATA
/* S/V CLOCKS ARE ALIGNED TO GNSS TIME                      
/* G:C1WC2W R:C1PC2P E:C1XC5X C:C2IC6I J:C1CC2S             
/* PCV:IGS20_2247 OL/AL:FES2004  NONE     YN ORB:CoN CLK:CoN
*  2023 03 17 15 30  0.00000000
PC06 -17881.885277  36900.413020 -10388.467432   -196.180971
PC07  -3774.354760  34030.485129 -24459.023446    -33.952612
PC08 -10744.158375  19410.422964  35833.778474    517.748806
PC09 -12068.644495  35990.329763 -18519.236256    871.407168
PC10   3158.433715  36853.947045 -19484.754518    -11.309620
PC11   1221.121584  22150.802961  16986.176730    711.033440
PC12 -11960.308309  25201.996543    789.759233    512.316500
PC13  -3397.706585  21945.562569  35994.746379    231.627771
PC14  12545.205262  24332.005778   5277.902454      4.168472
PC16 -19693.056867  36558.186480  -7935.547464    136.011750
PC19 -18028.620556 -20908.157173   4185.785455   -896.233630
PC20  -6577.437231 -24171.983762 -12310.069026    674.813841
PC21  -9837.746141  12989.707557  22673.664219   -908.779230
PC22 -19643.282523  -5478.382856  19067.828503   -581.513472
PC23  27718.627678    100.059249  -3252.761290   -889.613883
PC24  -3322.285055  16425.174433 -22329.394720   -283.961770
PC25  18662.912143  10830.437866 -17719.551459     89.318346
PC26 -20490.875102  12463.295947 -14255.107490    -93.160555
PC27  16191.215685 -21458.360893   7438.342447    111.899660
PC28  18416.123467  -5909.765130  20117.959751     82.005951
PC29  -9997.070110 -14624.036583 -21568.001710     94.721622
PC30   4425.457578 -25966.404257  -9182.392374      0.828939
PC32   9751.454851 -13038.460424 -22643.835188   -597.765665
PC33  18083.677447  20852.545198  -4036.814570   -870.982725
PC34  -3523.246877  25722.281268  10255.927446    128.544117
PC35 -18120.818957   5453.528662 -20536.536635    662.856964
PC36 -17747.415958 -11616.971748  18145.434562   -558.970256
PC37  21844.729968 -11329.617002  13189.420677   -801.565391
PC38 -19893.345371  19642.821475  31555.574779     65.589489
PC39 -21576.037354  36342.540278  -1303.475661     -2.202812
PC40  -6829.736095  30411.646421 -28297.525689    -17.796219
PC41  19818.314560   6042.255246 -18632.671679   -734.753466
PC42   5432.739386  23856.561160  13447.034062   -782.719635
PC43   9490.351410  15468.848930  21195.213491     12.198713
PC44 -15544.954640  21915.223372  -7624.068377     47.128599
PC45 -27747.684129    193.533243   2834.982085    -73.326800
PC46   1449.469257 -16284.680098  22609.881648    -40.488803
PE01   6133.031388  19557.420465 -21365.095474    -15.227840
PE02  -6620.097077 -19624.208672  21130.258515     26.868859
PE03  -2471.613335 -29483.499702   1053.400792   -660.060975
PE04  13531.567671  19569.000108 -17600.565735    -80.384638
PE05  10325.533200 -22272.178806 -16530.182054    -85.600497
PE07 -16925.020619   1953.483751  24215.126504    -30.558434
PE08 -13394.733956 -19725.919372  17550.954538    -52.559485
PE09  16785.852949  -1778.450230 -24308.705775   -872.127700
PE10  22104.015931    467.135688  19674.182167   -519.736705
PE11  25979.795517  -8250.350218  11503.991743   1278.206842
PE12  15217.401912   8496.806824  23918.785749   -461.785365
PE13 -25824.463291   7677.478930 -12274.274137    -17.786226
PE14 -14392.076526 -22355.867707 -18635.154379    170.941217
PE15 -14925.176542  -8647.926452 -24050.629430     -8.080068
PE18  12161.937292  12824.625458  15578.128088   -272.904581
PE19    574.629879  29558.207344   1532.182351  -2987.023196
PE21 -13059.878744  11722.147529 -23843.069718   -518.031648
PE24  26642.711065   4140.636005  12225.449812  -1170.186438
PE25  13391.980896 -11493.024309  23763.762231   -601.496031
PE26 -20982.033059  19573.149900   7288.013874     48.138964
PE27 -26395.470833  -3394.754102 -12948.102820   -536.999169
PE31  24057.698617  16364.808295  -5465.073873   -518.792658
PE33  -4722.321806  19757.067480  21540.035507   -448.963246
PE34   4506.336211 -19711.839497 -21620.776659    -35.374415
PE36  21461.987203 -19295.167971  -6536.358918    -27.556168
PG01   6660.484292 -17818.416940 -18700.510167    201.891334
PG02  -2160.962646  18226.408486  19905.102904   -613.652511
PG03  -4207.251314 -17621.893372 -19586.553330   -348.142961
PG04    210.960214 -26484.854296    855.206032     -4.965927
PG05 -12437.470683  10031.075748  21066.245063   -119.823184
PG06 -22847.412457   3061.554849 -13214.232771    581.903640
PG07  -8473.219905 -13165.641336  21904.311732    221.213179
PG08   7093.821999 -22819.676691  11095.069468   -113.368418
PG09  -8187.512927 -22801.416523  10761.479117   -198.816344
PG10  24065.188428  11082.796085  -3355.963017    -28.931132
PG11 -23602.904540  12142.010273    -66.569005   -133.165146
PG12    725.317951  17416.509841 -20348.170181   -352.641582
PG13 -12931.956826  17093.913350  15380.055741    491.896906
PG14 -23044.430942 -13313.734727  -1044.166881     -1.445198
PG15  -4171.945541  23865.326745  10115.799346     22.376545
PG16  15779.876248  -6115.433779  20278.183910   -514.866209
PG17 -12786.959428 -11435.946532 -19819.434696    705.954326
PG18  11768.454759  10198.760942  21536.646403   -183.660747
PG19 -15021.563115   -699.858085 -22114.246347    291.268371
PG20 -20806.492944   4453.973566  15805.498839    444.468627
PG21  13784.528452 -19029.474994 -10942.821506    154.332490
PG22  15041.521901  -3547.925061 -21138.560192    446.973227
PG23  19385.800919  16463.535321   7916.437756     11.140409
PG24  -9231.640386  19992.264105 -14898.802240   -115.391022
PG25  11834.358810  18819.457577 -15050.081082    428.418938
PG26  23907.399661   2095.161856  11625.370795    241.975685
PG27  12670.266869 -13587.332234  18573.774252     79.078582
PG28  22077.831338  -1841.564102 -14675.146184     45.360676
PG29   3618.332919  25000.834445   8017.130197   -591.260828
PG30 -19414.010654  -4094.882416  17877.369919   -526.521412
PG31  24302.187518  -5256.762386 -10127.470651   -211.817027
PG32  14538.332974   8024.505200 -20600.107427   -426.042450
PJ02 -26498.089788  15711.430449 -24222.517324     -1.210436
PJ03 -27571.179116  31599.746414     79.737582      1.069960
PJ04 -26053.075123  26536.404737  25899.807044     94.158256
PR01   7671.711033  23371.906872   6734.271928     24.935370
PR02  13890.706774  17898.820379 -11735.209319    -23.122660
PR03  12296.603283   1711.880230 -22240.703961     74.349201
PR04   3737.938365 -14936.961244 -20298.670455    179.742193
PR05  -6638.066301 -23521.467472  -7246.148166    109.462915
PR07 -12002.930803   -746.902147  22534.019058     51.935203
PR08  -3673.351381  15171.847936  20247.287872    -69.933569
PR09 -21459.617021  -7411.634490  11718.391962    109.659788
PR11 -15315.565190   7691.218065 -18892.244990    -19.889631
PR12   5042.229585  11223.166668 -22328.078694     25.733002
PR13  20182.284483   8107.362233 -13350.860385    -33.046964
PR14  24924.984657   -410.800399   5375.574465     24.449021
PR15  14324.042262  -8060.872191  19518.576773     90.413704
PR16  -4764.589661 -11053.158617  22496.269412     12.477431
PR17  16601.103994  -9939.025723  16646.726945    613.318220
PR18  15696.062099 -20014.229272   1476.846984     71.922054
PR19   8217.319179 -20065.478267 -13431.931065   -225.634346
PR20  -7478.401048  -7194.232812 -23292.946497    -89.516637
PR21 -16927.125285  11237.560273 -15412.252306   -381.026782
PR22 -16115.476403  19779.802042   -505.354278     75.298106
PR24   8506.244356   6704.033227  23110.318007    154.472538
PR25 -17141.990060   8768.229911 -16719.371413     58.017403
EOF
